{
    "links": {
        "self": "http://www.neowsapp.com/rest/v1/neo/3769875?api_key=iIulBulltgU6a56xZRHN4H3l9WmuAYTsLGpBGhQ2"
    },
    "id": "3769875",
    "neo_reference_id": "3769875",
    "name": "(2017 DP35)",
    "designation": "2017 DP35",
    "nasa_jpl_url": "http://ssd.jpl.nasa.gov/sbdb.cgi?sstr=3769875",
    "absolute_magnitude_h": 22.3,
    "estimated_diameter": {
        "kilometers": {
            "estimated_diameter_min": 0.0921626549,
            "estimated_diameter_max": 0.2060819612
        },
        "meters": {
            "estimated_diameter_min": 92.1626548503,
            "estimated_diameter_max": 206.0819612321
        },
        "miles": {
            "estimated_diameter_min": 0.057267201,
            "estimated_diameter_max": 0.1280533543
        },
        "feet": {
            "estimated_diameter_min": 302.370924539,
            "estimated_diameter_max": 676.1219416887
        }
    },
    "is_potentially_hazardous_asteroid": false,
    "close_approach_data": [
        {
            "close_approach_date": "1963-04-18",
            "close_approach_date_full": "1963-Apr-18 15:04",
            "epoch_date_close_approach": -211625760000,
            "relative_velocity": {
                "kilometers_per_second": "13.2734453906",
                "kilometers_per_hour": "47784.40340602",
                "miles_per_hour": "29691.3699941461"
            },
            "miss_distance": {
                "astronomical": "0.3585910102",
                "lunar": "139.4919029678",
                "kilometers": "53644451.327068274",
                "miles": "33333116.3774952212"
            },
            "orbiting_body": "Earth"
        },
        {
            "close_approach_date": "1968-02-21",
            "close_approach_date_full": "1968-Feb-21 09:03",
            "epoch_date_close_approach": -58719420000,
            "relative_velocity": {
                "kilometers_per_second": "27.3943966129",
                "kilometers_per_hour": "98619.827806408",
                "miles_per_hour": "61278.5257833761"
            },
            "miss_distance": {
                "astronomical": "0.2837641949",
                "lunar": "110.3842718161",
                "kilometers": "42450519.139304863",
                "miles": "26377529.4508705894"
            },
            "orbiting_body": "Earth"
        },
        {
            "close_approach_date": "2017-03-03",
            "close_approach_date_full": "2017-Mar-03 19:30",
            "epoch_date_close_approach": 1488569400000,
            "relative_velocity": {
                "kilometers_per_second": "20.6523270149",
                "kilometers_per_hour": "74348.3772536335",
                "miles_per_hour": "46197.1902996258"
            },
            "miss_distance": {
                "astronomical": "0.1041550836",
                "lunar": "40.5163275204",
                "kilometers": "15581378.656231932",
                "miles": "9681819.7450353816"
            },
            "orbiting_body": "Earth"
        }
    ],
    "orbital_data": {
        "orbit_id": "7",
        "orbit_determination_date": "2018-02-10 07:08:44",
        "first_observation_date": "2017-02-16",
        "last_observation_date": "2017-03-03",
        "data_arc_in_days": 15,
        "observations_used": 45,
        "orbit_uncertainty": "8",
        "minimum_orbit_intersection": ".00105057",
        "jupiter_tisserand_invariant": "3.745",
        "epoch_osculation": "2457804.5",
        "eccentricity": ".6211470064691855",
        "semi_major_axis": "1.818831497197276",
        "inclination": "17.52388810286703",
        "ascending_node_longitude": "147.8658481113848",
        "orbital_period": "895.9569165619312",
        "perihelion_distance": ".6890697574413213",
        "perihelion_argument": "99.83606202038757",
        "aphelion_distance": "2.948593236953231",
        "perihelion_time": "2457866.618600748967",
        "mean_anomaly": "335.040433467001",
        "mean_motion": ".4018050347570655",
        "equinox": "J2000",
        "orbit_class": {
            "orbit_class_type": "APO",
            "orbit_class_description": "Near-Earth asteroid orbits which cross the Earth’s orbit similar to that of 1862 Apollo",
            "orbit_class_range": "a (semi-major axis) > 1.0 AU; q (perihelion) < 1.017 AU"
        }
    },
    "is_sentry_object": false
}